SL-16 R/B               
1 28353U 04021B   25205.82976741 -.00000307  00000+0 -13496-3 0  9993
2 28353  71.0023 350.6589 0004670 357.0692   3.0402 14.14553599 90612
CZ-4B R/B               
1 28415U 04035C   25205.63256457  .00008152  00000+0  32678-3 0  9998
2 28415  97.3775 237.9813 0036824  57.1715 303.3060 15.24639747145117
CZ-2C R/B               
1 28480U 04046B   25205.80192193  .00000168  00000+0  77026-4 0  9993
2 28480  98.1922 130.0236 0140844 108.6060 253.0477 14.26846499 76006
ARIANE 5 R/B            
1 28499U 04049H   25205.87306220  .00000678  00000+0  82506-4 0  9996
2 28499  98.2385   1.2737 0085432  10.1566 350.1349 14.84580682111981
CZ-2D R/B               
1 28738U 05024B   25205.53844449  .00018584  00000+0  39575-3 0  9991
2 28738  97.3672 210.1478 0008010 130.9797 229.2146 15.44960571104410
ALOS (DAICHI)           
1 28931U 06002A   25205.84759406  .00001410  00000+0  24990-3 0  9990
2 28931  98.0861 158.5992 0000865  58.7885 301.3405 14.68825237 40024
H-2A R/B                
1 28932U 06002B   25205.89915113  .00006726  00000+0  38785-3 0  9997
2 28932  98.2166 329.7101 0057029 294.3723  65.1559 15.11368445 59973
RESURS-DK 1             
1 29228U 06021A   25205.87953163  .00002458  00000+0  15258-3 0  9990
2 29228  69.9346 105.5484 0001985 144.7301 215.3996 15.11130548 53093
CZ-4B R/B               
1 29507U 06046C   25205.74523628  .00004200  00000+0  23115-3 0  9990
2 29507  97.5930 246.2625 0034571 338.1902  21.7856 15.14095202 25523
CZ-2C R/B               
1 31114U 07010B   25205.95125553  .00000107  00000+0  68330-4 0  9998
2 31114  98.3836 325.8120 0058127 235.7677 123.7985 14.20138984947397
COSMO-SKYMED 1          
1 31598U 07023A   25204.63394834  .00001272  00000+0  12294-3 0  9993
2 31598  97.8881  29.2151 0001272  86.0891 274.0474 14.94606533980739
GENESIS 2               
1 31789U 07028A   25205.93500668  .00180144  18694-4  60600-3 0  9991
2 31789  64.4687 253.6709 0026283 304.3631  55.5040 15.89303862   103
COSMOS 2428             
1 31792U 07029A   25205.85130132  .00000299  00000+0  18654-3 0  9993
2 31792  70.9439 321.6113 0005345 238.5676 121.4923 14.12891359931915
SL-16 R/B               
1 31793U 07029B   25205.70124634 -.00000110  00000+0 -32369-4 0  9992
2 31793  70.9769 291.6150 0002662 281.7962 189.0693 14.14793358933127
KORONAS-FOTON           
1 33504U 09003A   25205.92189403  .00011443  00000+0  31167-3 0  9990
2 33504  82.4341 151.4997 0009765 250.0559 109.9633 15.37305720910686
CZ-2C R/B               
1 37731U 11030B   25205.88524912  .00001414  00000+0  18805-3 0  9993
2 37731  97.8171 163.3862 0053863  13.2564  46.2893 14.80299362756386
H-2A R/B                
1 38341U 12025E   25205.83410503  .00002869  00000+0  27548-3 0  9990
2 38341  98.4378 150.5622 0045808 338.9815  20.9518 14.93206878714198
SHIJIAN-16 (SJ-16)      
1 39358U 13057A   25205.89076801  .00000771  00000+0  79787-4 0  9993
2 39358  74.9707 256.0163 0018142 304.5822  55.3654 14.91459849637533
SL-4 R/B                
1 39679U 14021B   25205.84541999  .00009050  00000+0  24669-3 0  9998
2 39679  51.6095   2.6899 0111361 356.8167   3.2093 15.32219093621264
ALOS-2                  
1 39766U 14029A   25205.86380562  .00001567  00000+0  21662-3 0  9997
2 39766  97.9230 302.7268 0001521  97.6371 262.5014 14.79477197603187
YAOGAN-29               
1 41038U 15069A   25205.84881163  .00000450  00000+0  62608-4 0  9994
2 41038  98.0337 228.4440 0002224  49.5373 310.6033 14.82674568522111
ASTRO-H (HITOMI)        
1 41337U 16012A   25205.90438073  .00002988  00000+0  18246-3 0  9996
2 41337  31.0013  24.4185 0009929 205.6589 154.3557 15.08215039517799
HXMT (HUIYAN)           
1 42758U 17034A   25205.90910443  .00003538  00000+0  20028-3 0  9998
2 42758  43.0128 199.7707 0035509 238.8982 120.8379 15.14150695447976
CZ-2C R/B               
1 43521U 18054D   25205.87293903  .00033033  00000+0  47321-3 0  9999
2 43521  35.1390  39.1489 0031892 249.8483 109.8812 15.54533351393013
SAOCOM 1A               
1 43641U 18076A   25205.91235379  .00000458  00000+0  64146-4 0  9994
2 43641  97.8891  32.3468 0001383  89.5611 270.5760 14.82150387367623
H-2A R/B                
1 43682U 18084L   25205.93565533  .00014930  00000+0  48566-3 0  9995
2 43682  98.8791  11.6218 0032321  88.5139 271.9800 15.31510724370816
SAOCOM 1B               
1 46265U 20059A   25205.94363602  .00000411  00000+0  58184-4 0  9991
2 46265  97.8896  31.4817 0001487  87.8785 272.2598 14.82159454265011
CSS (TIANHE)            
1 48274U 21035A   25205.88140836  .00020776  00000+0  28317-3 0  9993
2 48274  41.4642 152.1616 0007030 341.0800  18.9776 15.57002434242036
COSMOS 2550             
1 48865U 21056A   25205.68207589  .00008620  00000+0  26749-3 0  9990
2 48865  67.1436  10.6776 0008559 271.9412  88.0762 15.33832189228499
CZ-2C R/B               
1 52794U 22058K   25205.92913602  .00014887  00000+0  34444-3 0  9999
2 52794  50.1938  36.9654 0055254 331.2265  28.5655 15.41063869174872
GSLV R/B                
1 54149U 22138AN  25205.60399692  .00002033  00000+0  18298-3 0  9995
2 54149  87.3765 242.7289 0019637 258.1597 101.7431 14.94975726149834
XRISM                   
1 57800U 23137A   25205.57043874  .00004941  00000+0  30410-3 0  9996
2 57800  31.0030 315.4920 0008007 268.5511  91.4209 15.08397847103287
ACS3                    
1 59588U 24077B   25205.91816006  .00013194  00000+0  12620-1 0  9999
2 59588  97.4384 192.1986 0075731  49.8242 310.9514 13.79185336 62692
